SES-1                   
1 36516U 10016A   26160.03669612 -.00000098  00000+0  00000+0 0  9993
2 36516   0.0141 325.0271 0002738 114.6376  89.9727  1.00271624 58959
ASTRA 3B                
1 36581U 10021A   26160.27516946  .00000154  00000+0  00000+0 0  9990
2 36581   1.4502  83.6504 0004479 352.8030 303.7672  1.00274709 58784
COMSATBW-2              
1 36582U 10021B   26160.27317612  .00000105  00000+0  00000+0 0  9996
2 36582   0.0241  39.9096 0002667  52.3792 276.9019  1.00270151 58877
BEIDOU-2 G3             
1 36590U 10024A   26159.85831333 -.00000121  00000+0  00000+0 0  9990
2 36590   4.4951  61.5500 0008360 351.1630 233.2258  1.00272833 58689
BADR-5                  
1 36592U 10025A   26160.20529444  .00000170  00000+0  00000+0 0  9994
2 36592   0.0650 113.6974 0002979  78.9180 169.4147  1.00266117 53137
COMS 1                  
1 36744U 10032A   26154.99142485 -.00000334  00000+0  00000+0 0  9999
2 36744   4.7750  75.5286 0001016   4.5847 297.3769  1.00270643 50953
ARABSAT-5A              
1 36745U 10032B   26160.20529444  .00000170  00000+0  00000+0 0  9992
2 36745   0.0744  53.1584 0005515  45.7021 263.1042  1.00270128 58566
ECHOSTAR 15             
1 36792U 10034A   26160.32003426  .00000017  00000+0  00000+0 0  9996
2 36792   0.0137  26.5409 0001756  53.2042 174.3518  1.00271692 58247
BEIDOU-2 IGSO-1         
1 36828U 10036A   26159.63837581 -.00000038  00000+0  00000+0 0  9991
2 36828  54.3009 163.0368 0059254 225.1321 206.3324  1.00275040 58011
NILESAT 201             
1 36830U 10037A   26160.28516881 -.00000041  00000+0  00000+0 0  9999
2 36830   0.0341 129.0890 0004413 338.9875 245.2590  1.00271926 58293
RASCOM-QAF 1R           
1 36831U 10037B   26160.27109611  .00000035  00000+0  00000+0 0  9990
2 36831   0.0059  20.0733 0006776  55.6380 282.4211  1.00270954 58220
AEHF-1 (USA 214)        
1 36868U 10039A   26159.93327983  .00000162  00000+0  00000+0 0  9998
2 36868   8.1978  68.1546 0004023   5.1845 189.8811  1.00270906 53579
XM-5                    
1 37185U 10053A   26159.96257545 -.00000006  00000+0  00000+0 0  9994
2 37185   0.0671 272.7941 0002723 285.1463 290.7439  1.00270322 57402
BSAT-3B                 
1 37207U 10056B   26160.00712714 -.00000333  00000+0  00000+0 0  9996
2 37207   0.0802 250.1261 0001200 301.1927 178.4962  1.00269433 52017
BEIDOU-2 G4             
1 37210U 10057A   26160.15960284 -.00000096  00000+0  00000+0 0  9990
2 37210   3.6260  68.9942 0004879 200.1312 205.8872  1.00271842 57219
SKYTERRA 1              
1 37218U 10061A   26160.25044436 -.00000103  00000+0  00000+0 0  9995
2 37218   5.1074  50.8552 0002657  21.8755 173.7291  1.00270855 57115
HYLAS 1                 
1 37237U 10065A   26159.91682612  .00000105  00000+0  00000+0 0  9996
2 37237   5.6216  73.1189 0000984 314.3098 213.7339  1.00272680  6800
INTELSAT 17 (IS-17)     
1 37238U 10065B   26160.14100433  .00000015  00000+0  00000+0 0  9990
2 37238   0.0058 122.7144 0002542 325.7921 285.7737  1.00272583 53163
BEIDOU-2 IGSO-2         
1 37256U 10068A   26157.74761939 -.00000212  00000+0  00000+0 0  9999
2 37256  47.5684 271.9632 0055009 212.6052 147.2432  1.00287050 56698
EUTELSAT KA-SAT 9A      
1 37258U 10069A   26160.27230944  .00000079  00000+0  00000+0 0  9991
2 37258   0.0606  10.7938 0004189 119.1982 234.7005  1.00275594 43922
HISPASAT 30W-5          
1 37264U 10070A   26159.97936359 -.00000199  00000+0  00000+0 0  9992
2 37264   0.0303 152.8038 0005059 308.3309 118.8118  1.00272886 53103
KOREASAT 6              
1 37265U 10070B   26159.87444093 -.00000095  00000+0  00000+0 0  9996
2 37265   0.0116 294.2562 0002311 151.8779 285.8170  1.00272667 56685
BEIDOU-2 IGSO-3         
1 37384U 11013A   26159.67087483 -.00000189  00000+0  00000+0 0  9994
2 37384  62.3952  40.2341 0034466 184.5609  21.7196  1.00270208 55572
INTELSAT 28 (IS-28)     
1 37392U 11016A   26160.26424941 -.00000208  00000+0  00000+0 0  9999
2 37392   1.7847  82.7206 0003785   0.5824 237.7648  1.00272096 53204
YAHSAT 1A               
1 37393U 11016B   26160.20962780  .00000000  00000+0  00000+0 0  9991
2 37393   0.0164 345.7061 0002879 108.1671 291.6650  1.00269612 42321
SBIRS GEO-1 (USA 230)   
1 37481U 11019A   26159.92406904  .00000115  00000+0  00000+0 0  9997
2 37481   4.5185  53.1313 0002160  14.7620 213.8717  1.00272263 55319
TELSTAR 14R             
1 37602U 11021A   26160.25809604 -.00000263  00000+0  00000+0 0  9992
2 37602   0.0233  63.3914 0002345 359.1376 225.0335  1.00271755 55752
GSAT-8                  
1 37605U 11022A   26160.21014780  .00000101  00000+0  00000+0 0  9995
2 37605   2.1094  81.9199 0002247 209.3838  97.0077  1.00271180 53136
ST-2                    
1 37606U 11022B   26160.14542434 -.00000194  00000+0  00000+0 0  9993
2 37606   0.0172 279.9549 0001620 170.8245 307.1195  1.00267902 55198
ZHONGXING-10            
1 37677U 11026A   26160.14490434 -.00000172  00000+0  00000+0 0  9993
2 37677   1.0250  84.2960 0003662 358.7090 312.2211  1.00270670 54912
SES-3                   
1 37748U 11035A   26160.26786215 -.00000085  00000+0  00000+0 0  9993
2 37748   1.3053  83.1741 0002622 350.3669 177.5276  1.00270809 54518
KAZSAT-2                
1 37749U 11035B   26160.14507767 -.00000180  00000+0  00000+0 0  9990
2 37749   0.0347 245.8922 0001320 261.7505 248.6108  1.00269159 53314
