OBJECT_NAME,OBJECT_ID,EPOCH,MEAN_MOTION,ECCENTRICITY,INCLINATION,RA_OF_ASC_NODE,ARG_OF_PERICENTER,MEAN_ANOMALY,EPHEMERIS_TYPE,CLASSIFICATION_TYPE,NORAD_CAT_ID,ELEMENT_SET_NO,REV_AT_EPOCH,BSTAR,MEAN_MOTION_DOT,MEAN_MOTION_DDOT
SES-1,2010-016A,2026-06-09T00:52:50.544768,1.00271624,.00027388,0.0141,325.0271,114.6376,89.9727,0,U,36516,999,5895,0,-.98E-6,0
ASTRA 3B,2010-021A,2026-06-09T06:36:14.641344,1.00274709,.00044798,1.4502,83.6504,352.8030,303.7672,0,U,36581,999,5878,0,.154E-5,0
COMSATBW-2,2010-021B,2026-06-09T06:33:22.416768,1.00270151,.00026677,0.0241,39.9096,52.3792,276.9019,0,U,36582,999,5887,0,.105E-5,0
BEIDOU-2 G3,2010-024A,2026-06-08T20:35:58.271712,1.00272833,.00083606,4.4951,61.5500,351.1630,233.2258,0,U,36590,999,5868,0,-.121E-5,0
BADR-5,2010-025A,2026-06-09T04:55:37.439616,1.00266117,.0002979,0.0650,113.6974,78.9180,169.4147,0,U,36592,999,5313,0,.17E-5,0
COMS 1,2010-032A,2026-06-03T23:47:39.107040,1.00270643,.0001016,4.7750,75.5286,4.5847,297.3769,0,U,36744,999,5095,0,-.334E-5,0
ARABSAT-5A,2010-032B,2026-06-09T04:55:37.439616,1.00270128,.00055156,0.0744,53.1584,45.7021,263.1042,0,U,36745,999,5856,0,.17E-5,0
ECHOSTAR 15,2010-034A,2026-06-09T07:40:50.960064,1.00271692,.00017566,0.0137,26.5409,53.2042,174.3518,0,U,36792,999,5824,0,.17E-6,0
BEIDOU-2 IGSO-1,2010-036A,2026-06-08T15:19:15.669984,1.00275040,.00592541,54.3009,163.0368,225.1321,206.3324,0,U,36828,999,5801,0,-.38E-6,0
NILESAT 201,2010-037A,2026-06-09T06:50:38.585184,1.00271926,.00044131,0.0341,129.0890,338.9875,245.2590,0,U,36830,999,5829,0,-.41E-6,0
RASCOM-QAF 1R,2010-037B,2026-06-09T06:30:22.703904,1.00270954,.0006776,0.0059,20.0733,55.6380,282.4211,0,U,36831,999,5822,0,.35E-6,0
AEHF-1 (USA 214),2010-039A,2026-06-08T22:23:55.377312,1.00270906,.00040237,8.1978,68.1546,5.1845,189.8811,0,U,36868,999,5357,0,.162E-5,0
XM-5,2010-053A,2026-06-08T23:06:06.518880,1.00270322,.00027236,0.0671,272.7941,285.1463,290.7439,0,U,37185,999,5740,0,-.6E-7,0
BSAT-3B,2010-056B,2026-06-09T00:10:15.784896,1.00269433,.00012006,0.0802,250.1261,301.1927,178.4962,0,U,37207,999,5201,0,-.333E-5,0
BEIDOU-2 G4,2010-057A,2026-06-09T03:49:49.685376,1.00271842,.00048799,3.6260,68.9942,200.1312,205.8872,0,U,37210,999,5721,0,-.96E-6,0
SKYTERRA 1,2010-061A,2026-06-09T06:00:38.392704,1.00270855,.0002657,5.1074,50.8552,21.8755,173.7291,0,U,37218,999,5711,0,-.103E-5,0
HYLAS 1,2010-065A,2026-06-08T22:00:13.776768,1.00272680,.0000984,5.6216,73.1189,314.3098,213.7339,0,U,37237,999,680,0,.105E-5,0
INTELSAT 17 (IS-17),2010-065B,2026-06-09T03:23:02.774112,1.00272583,.0002542,0.0058,122.7144,325.7921,285.7737,0,U,37238,999,5316,0,.15E-6,0
BEIDOU-2 IGSO-2,2010-068A,2026-06-06T17:56:34.315296,1.00287050,.00550091,47.5684,271.9632,212.6052,147.2432,0,U,37256,999,5669,0,-.212E-5,0
EUTELSAT KA-SAT 9A,2010-069A,2026-06-09T06:32:07.535616,1.00275594,.00041896,0.0606,10.7938,119.1982,234.7005,0,U,37258,999,4392,0,.79E-6,0
HISPASAT 30W-5,2010-070A,2026-06-08T23:30:17.014176,1.00272886,.00050599,0.0303,152.8038,308.3309,118.8118,0,U,37264,999,5310,0,-.199E-5,0
KOREASAT 6,2010-070B,2026-06-08T20:59:11.696352,1.00272667,.00023112,0.0116,294.2562,151.8779,285.8170,0,U,37265,999,5668,0,-.95E-6,0
BEIDOU-2 IGSO-3,2011-013A,2026-06-08T16:06:03.585312,1.00270208,.00344665,62.3952,40.2341,184.5609,21.7196,0,U,37384,999,5557,0,-.189E-5,0
INTELSAT 28 (IS-28),2011-016A,2026-06-09T06:20:31.149024,1.00272096,.00037853,1.7847,82.7206,0.5824,237.7648,0,U,37392,999,5320,0,-.208E-5,0
YAHSAT 1A,2011-016B,2026-06-09T05:01:51.841920,1.00269612,.00028795,0.0164,345.7061,108.1671,291.6650,0,U,37393,999,4232,0,0,0
SBIRS GEO-1 (USA 230),2011-019A,2026-06-08T22:10:39.565056,1.00272263,.000216,4.5185,53.1313,14.7620,213.8717,0,U,37481,999,5531,0,.115E-5,0
TELSTAR 14R,2011-021A,2026-06-09T06:11:39.497856,1.00271755,.00023459,0.0233,63.3914,359.1376,225.0335,0,U,37602,999,5575,0,-.263E-5,0
GSAT-8,2011-022A,2026-06-09T05:02:36.769920,1.00271180,.00022478,2.1094,81.9199,209.3838,97.0077,0,U,37605,999,5313,0,.101E-5,0
ST-2,2011-022B,2026-06-09T03:29:24.662976,1.00267902,.000162,0.0172,279.9549,170.8245,307.1195,0,U,37606,999,5519,0,-.194E-5,0
ZHONGXING-10,2011-026A,2026-06-09T03:28:39.734976,1.00270670,.0003662,1.0250,84.2960,358.7090,312.2211,0,U,37677,999,5491,0,-.172E-5,0
SES-3,2011-035A,2026-06-09T06:25:43.289760,1.00270809,.00026222,1.3053,83.1741,350.3669,177.5276,0,U,37748,999,5451,0,-.85E-6,0
KAZSAT-2,2011-035B,2026-06-09T03:28:54.710688,1.00269159,.00013207,0.0347,245.8922,261.7505,248.6108,0,U,37749,999,5331,0,-.18E-5,0
